COSMOS 2361             
1 25590U 98076A   26087.99774683  .00000086  00000+0  76747-4 0  9995
2 25590  82.9298 265.5032 0030820 332.4225 140.3582 13.73229953365694
COSMOS 2378             
1 26818U 01023A   26088.05737403  .00000074  00000+0  62665-4 0  9993
2 26818  82.9228 280.9019 0031656 271.1401 202.0048 13.74152892243832
COSMOS 2389             
1 27436U 02026A   26088.16749159  .00000065  00000+0  50816-4 0  9992
2 27436  82.9503 228.1947 0047496 122.2410  49.8779 13.75166208196117
COSMOS 2398             
1 27818U 03023A   26088.21491115  .00000050  00000+0  37922-4 0  9993
2 27818  82.9521 194.2371 0031646 174.7405 204.6798 13.72397152142777
COSMOS 2407             
1 28380U 04028A   26088.16955674  .00000083  00000+0  68983-4 0  9990
2 28380  82.9595 134.1037 0040594 115.4416 298.9771 13.76327320 88872
COSMOS 2414             
1 28521U 05002A   26088.15499862  .00000066  00000+0  42384-4 0  9999
2 28521  82.9453 104.1896 0039689 195.6190 164.3752 13.87917795 72718
COSMOS 2429             
1 32052U 07038A   26087.87748423  .00000079  00000+0  65920-4 0  9997
2 32052  82.9761 265.0702 0039685  99.5262 261.0382 13.75160215930615
COSMOS 2454             
1 35635U 09039A   26088.07418375  .00000093  00000+0  62126-4 0  9994
2 35635  82.9518  88.0260 0020382 125.6576 295.4551 13.89943521846271
COSMOS 2463             
1 36519U 10017A   26088.10824477  .00000070  00000+0  61262-4 0  9997
2 36519  82.9592 308.5636 0036047 354.4426 125.8000 13.71659767796954
