[{"OBJECT_NAME":"COSMOS 2361","OBJECT_ID":"1998-076A","EPOCH":"2026-03-28T23:56:45.326112","MEAN_MOTION":13.73229953,"ECCENTRICITY":0.003082,"INCLINATION":82.9298,"RA_OF_ASC_NODE":265.5032,"ARG_OF_PERICENTER":332.4225,"MEAN_ANOMALY":140.3582,"EPHEMERIS_TYPE":0,"CLASSIFICATION_TYPE":"U","NORAD_CAT_ID":25590,"ELEMENT_SET_NO":999,"REV_AT_EPOCH":36569,"BSTAR":7.6747e-5,"MEAN_MOTION_DOT":8.6e-7,"MEAN_MOTION_DDOT":0},{"OBJECT_NAME":"COSMOS 2378","OBJECT_ID":"2001-023A","EPOCH":"2026-03-29T01:22:37.116192","MEAN_MOTION":13.74152892,"ECCENTRICITY":0.0031656,"INCLINATION":82.9228,"RA_OF_ASC_NODE":280.9019,"ARG_OF_PERICENTER":271.1401,"MEAN_ANOMALY":202.0048,"EPHEMERIS_TYPE":0,"CLASSIFICATION_TYPE":"U","NORAD_CAT_ID":26818,"ELEMENT_SET_NO":999,"REV_AT_EPOCH":24383,"BSTAR":6.2665e-5,"MEAN_MOTION_DOT":7.4e-7,"MEAN_MOTION_DDOT":0},{"OBJECT_NAME":"COSMOS 2389","OBJECT_ID":"2002-026A","EPOCH":"2026-03-29T04:01:11.273376","MEAN_MOTION":13.75166208,"ECCENTRICITY":0.0047496,"INCLINATION":82.9503,"RA_OF_ASC_NODE":228.1947,"ARG_OF_PERICENTER":122.241,"MEAN_ANOMALY":49.8779,"EPHEMERIS_TYPE":0,"CLASSIFICATION_TYPE":"U","NORAD_CAT_ID":27436,"ELEMENT_SET_NO":999,"REV_AT_EPOCH":19611,"BSTAR":5.0816e-5,"MEAN_MOTION_DOT":6.5e-7,"MEAN_MOTION_DDOT":0},{"OBJECT_NAME":"COSMOS 2398","OBJECT_ID":"2003-023A","EPOCH":"2026-03-29T05:09:28.323360","MEAN_MOTION":13.72397152,"ECCENTRICITY":0.0031646,"INCLINATION":82.9521,"RA_OF_ASC_NODE":194.2371,"ARG_OF_PERICENTER":174.7405,"MEAN_ANOMALY":204.6798,"EPHEMERIS_TYPE":0,"CLASSIFICATION_TYPE":"U","NORAD_CAT_ID":27818,"ELEMENT_SET_NO":999,"REV_AT_EPOCH":14277,"BSTAR":3.7922e-5,"MEAN_MOTION_DOT":5.0e-7,"MEAN_MOTION_DDOT":0},{"OBJECT_NAME":"COSMOS 2407","OBJECT_ID":"2004-028A","EPOCH":"2026-03-29T04:04:09.702336","MEAN_MOTION":13.7632732,"ECCENTRICITY":0.0040594,"INCLINATION":82.9595,"RA_OF_ASC_NODE":134.1037,"ARG_OF_PERICENTER":115.4416,"MEAN_ANOMALY":298.9771,"EPHEMERIS_TYPE":0,"CLASSIFICATION_TYPE":"U","NORAD_CAT_ID":28380,"ELEMENT_SET_NO":999,"REV_AT_EPOCH":8887,"BSTAR":6.8983e-5,"MEAN_MOTION_DOT":8.3e-7,"MEAN_MOTION_DDOT":0},{"OBJECT_NAME":"COSMOS 2414","OBJECT_ID":"2005-002A","EPOCH":"2026-03-29T03:43:11.880768","MEAN_MOTION":13.87917795,"ECCENTRICITY":0.0039689,"INCLINATION":82.9453,"RA_OF_ASC_NODE":104.1896,"ARG_OF_PERICENTER":195.619,"MEAN_ANOMALY":164.3752,"EPHEMERIS_TYPE":0,"CLASSIFICATION_TYPE":"U","NORAD_CAT_ID":28521,"ELEMENT_SET_NO":999,"REV_AT_EPOCH":7271,"BSTAR":4.2384e-5,"MEAN_MOTION_DOT":6.6e-7,"MEAN_MOTION_DDOT":0},{"OBJECT_NAME":"COSMOS 2429","OBJECT_ID":"2007-038A","EPOCH":"2026-03-28T21:03:34.637472","MEAN_MOTION":13.75160215,"ECCENTRICITY":0.0039685,"INCLINATION":82.9761,"RA_OF_ASC_NODE":265.0702,"ARG_OF_PERICENTER":99.5262,"MEAN_ANOMALY":261.0382,"EPHEMERIS_TYPE":0,"CLASSIFICATION_TYPE":"U","NORAD_CAT_ID":32052,"ELEMENT_SET_NO":999,"REV_AT_EPOCH":93061,"BSTAR":6.592e-5,"MEAN_MOTION_DOT":7.9e-7,"MEAN_MOTION_DDOT":0},{"OBJECT_NAME":"COSMOS 2454","OBJECT_ID":"2009-039A","EPOCH":"2026-03-29T01:46:49.476000","MEAN_MOTION":13.89943521,"ECCENTRICITY":0.0020382,"INCLINATION":82.9518,"RA_OF_ASC_NODE":88.026,"ARG_OF_PERICENTER":125.6576,"MEAN_ANOMALY":295.4551,"EPHEMERIS_TYPE":0,"CLASSIFICATION_TYPE":"U","NORAD_CAT_ID":35635,"ELEMENT_SET_NO":999,"REV_AT_EPOCH":84627,"BSTAR":6.2126e-5,"MEAN_MOTION_DOT":9.3e-7,"MEAN_MOTION_DDOT":0},{"OBJECT_NAME":"COSMOS 2463","OBJECT_ID":"2010-017A","EPOCH":"2026-03-29T02:35:52.348128","MEAN_MOTION":13.71659767,"ECCENTRICITY":0.0036047,"INCLINATION":82.9592,"RA_OF_ASC_NODE":308.5636,"ARG_OF_PERICENTER":354.4426,"MEAN_ANOMALY":125.8,"EPHEMERIS_TYPE":0,"CLASSIFICATION_TYPE":"U","NORAD_CAT_ID":36519,"ELEMENT_SET_NO":999,"REV_AT_EPOCH":79695,"BSTAR":6.1262e-5,"MEAN_MOTION_DOT":7.0e-7,"MEAN_MOTION_DDOT":0}]
